ONEWEB-0012             
1 44057U 19010A   25153.11637579  .00000017  00000+0  11936-4 0  9997
2 44057  87.9027 304.5585 0001238  93.4685 266.6587 13.16595905301585
ONEWEB-0010             
1 44058U 19010B   25152.91372321  .00000015  00000+0  56531-5 0  9995
2 44058  87.9028 304.5822 0002000 109.1048 251.0300 13.16595291301575
ONEWEB-0008             
1 44059U 19010C   25152.93904764  .00000117  00000+0  27361-3 0  9990
2 44059  87.9023 304.5766 0001906  91.0717 269.0632 13.16595961301698
ONEWEB-0007             
1 44060U 19010D   25152.90027322  .00000023  00000+0  27385-4 0  9998
2 44060  87.9053 335.0293 0001569 100.8725 259.2582 13.15550504301373
ONEWEB-0006             
1 44061U 19010E   25152.90424338 -.00000016  00000+0 -76165-4 0  9991
2 44061  87.9040 334.9782 0001760 100.9436 259.1892 13.15548003301424
ONEWEB-0011             
1 44062U 19010F   25152.95020535  .00000161  00000+0  39316-3 0  9993
2 44062  87.9042 334.9778 0002033  93.7922 266.3441 13.15547411301427
ONEWEB-0013             
1 45131U 20008A   25152.86839483 -.00000215  00000+0 -66043-3 0  9999
2 45131  87.8540 129.5702 0001302  62.0275 298.0983 13.09419140257052
ONEWEB-0017             
1 45132U 20008B   25153.12117044  .00000117  00000+0  29779-3 0  9996
2 45132  87.8810 112.0581 0002204  89.2913 270.8467 13.10369537258947
